{
    "links": {
        "self": "http://www.neowsapp.com/rest/v1/neo/3826689?api_key=iIulBulltgU6a56xZRHN4H3l9WmuAYTsLGpBGhQ2"
    },
    "id": "3826689",
    "neo_reference_id": "3826689",
    "name": "(2018 PV10)",
    "designation": "2018 PV10",
    "nasa_jpl_url": "http://ssd.jpl.nasa.gov/sbdb.cgi?sstr=3826689",
    "absolute_magnitude_h": 23.1,
    "estimated_diameter": {
        "kilometers": {
            "estimated_diameter_min": 0.063760979,
            "estimated_diameter_max": 0.1425738833
        },
        "meters": {
            "estimated_diameter_min": 63.7609789875,
            "estimated_diameter_max": 142.5738833281
        },
        "miles": {
            "estimated_diameter_min": 0.0396192233,
            "estimated_diameter_max": 0.0885912765
        },
        "feet": {
            "estimated_diameter_min": 209.1895703015,
            "estimated_diameter_max": 467.7620993781
        }
    },
    "is_potentially_hazardous_asteroid": false,
    "close_approach_data": [
        {
            "close_approach_date": "1978-04-16",
            "close_approach_date_full": "1978-Apr-16 11:13",
            "epoch_date_close_approach": 261573180000,
            "relative_velocity": {
                "kilometers_per_second": "5.6991061568",
                "kilometers_per_hour": "20516.7821646208",
                "miles_per_hour": "12748.3305622334"
            },
            "miss_distance": {
                "astronomical": "1.4130662129",
                "lunar": "549.6827568181",
                "kilometers": "211391695.618806523",
                "miles": "131352708.7514870974"
            },
            "orbiting_body": "Juptr"
        },
        {
            "close_approach_date": "2018-07-29",
            "close_approach_date_full": "2018-Jul-29 04:39",
            "epoch_date_close_approach": 1532839140000,
            "relative_velocity": {
                "kilometers_per_second": "8.851887499",
                "kilometers_per_hour": "31866.7949963954",
                "miles_per_hour": "19800.7871465102"
            },
            "miss_distance": {
                "astronomical": "0.1031231324",
                "lunar": "40.1148985036",
                "kilometers": "15427000.954767988",
                "miles": "9585893.8894867144"
            },
            "orbiting_body": "Earth"
        },
        {
            "close_approach_date": "2037-09-26",
            "close_approach_date_full": "2037-Sep-26 18:05",
            "epoch_date_close_approach": 2137601100000,
            "relative_velocity": {
                "kilometers_per_second": "4.3448792968",
                "kilometers_per_hour": "15641.5654685309",
                "miles_per_hour": "9719.0604990435"
            },
            "miss_distance": {
                "astronomical": "1.1348896472",
                "lunar": "441.4720727608",
                "kilometers": "169777073.906171464",
                "miles": "105494581.8765316432"
            },
            "orbiting_body": "Juptr"
        },
        {
            "close_approach_date": "2197-06-08",
            "close_approach_date_full": "2197-Jun-08 03:06",
            "epoch_date_close_approach": 7177172760000,
            "relative_velocity": {
                "kilometers_per_second": "12.6427896776",
                "kilometers_per_hour": "45514.0428393848",
                "miles_per_hour": "28280.6562298389"
            },
            "miss_distance": {
                "astronomical": "0.21964567",
                "lunar": "85.44216563",
                "kilometers": "32858524.3867229",
                "miles": "20417340.28926002"
            },
            "orbiting_body": "Earth"
        }
    ],
    "orbital_data": {
        "orbit_id": "10",
        "orbit_determination_date": "2018-09-12 07:06:52",
        "first_observation_date": "2018-08-09",
        "last_observation_date": "2018-09-12",
        "data_arc_in_days": 34,
        "observations_used": 50,
        "orbit_uncertainty": "6",
        "minimum_orbit_intersection": ".100794",
        "jupiter_tisserand_invariant": "3.098",
        "epoch_osculation": "2459000.5",
        "eccentricity": ".6054986791625053",
        "semi_major_axis": "2.633236293573545",
        "inclination": "7.910556693677473",
        "ascending_node_longitude": "165.7245617951549",
        "orbital_period": "1560.749395170533",
        "perihelion_distance": "1.038815195891992",
        "perihelion_argument": "121.459564094543",
        "aphelion_distance": "4.227657391255097",
        "perihelion_time": "2458312.135423396383",
        "mean_anomaly": "158.7770902517154",
        "mean_motion": ".230658426723699",
        "equinox": "J2000",
        "orbit_class": {
            "orbit_class_type": "AMO",
            "orbit_class_description": "Near-Earth asteroid orbits similar to that of 1221 Amor",
            "orbit_class_range": "1.017 AU < q (perihelion) < 1.3 AU"
        }
    },
    "is_sentry_object": false
}